satname,norad_id,inclination_deg,eccentricity,mean_motion_rev_per_day,perigee_km,apogee_km,l1,l2
STARLINK-1319,45379,53.0543,0.0002204,15.37596527,451.7133206298904,454.72458233330326,1 45379U 20019V   25318.17040843  .00022027  00000+0  59696-3 0  9996,2 45379  53.0543 322.3931 0002204  67.9099 292.2137 15.37596527312362
STARLINK-1266,45383,53.0549,0.0001679,15.06384285,546.0969484589004,548.4224966783395,1 45383U 20019Z   25318.17286153 -.00005058  00000+0 -32104-3 0  9999,2 45383  53.0549 305.1945 0001679  96.5637 263.5543 15.06384285312597
STARLINK-1267,45384,53.0556,6.57e-05,15.06370199,546.8478938157978,547.757896618029,1 45384U 20019AA  25318.68900042  .00013043  00000+0  89360-3 0  9993,2 45384  53.0556 303.5349 0000657  86.1841 273.9223 15.06370199312660
STARLINK-1272,45386,53.0531,0.0005566,15.35872143,454.5260381028356,462.13639452123425,1 45386U 20019AC  25318.82155419  .00019746  00000+0  56671-3 0  9996,2 45386  53.0531 297.2901 0005566  54.4721 305.6799 15.35872143312767
STARLINK-1274,45387,53.0364,0.0003819,15.30850854,470.6558719856557,475.88897850465855,1 45387U 20019AD  25318.63477404  .00013940  00000+0  47229-3 0  9996,2 45387  53.0364 286.0178 0003819   1.3084 358.7925 15.30850854312902
STARLINK-1280,45388,53.055,0.0005086,15.41649472,437.7724258983526,444.7090969572773,1 45388U 20019AE  25318.25955751  .00052129  00000+0  12193-2 0  9994,2 45388  53.0550 318.8665 0005086  34.2579 325.8753 15.41649472312400
STARLINK-1283,45389,53.0525,0.0006758,15.32222879,464.55434538651843,473.80918142713836,1 45389U 20019AF  25318.23791858  .00062792  00000+0  19843-2 0  9995,2 45389  53.0525 298.9704 0006758  50.5733 309.5864 15.32222879312696
STARLINK-1284,45390,53.0554,0.0001247,15.06386994,546.3878238059287,548.1150156778122,1 45390U 20019AG  25318.17654959 -.00003106  00000+0 -18982-3 0  9990,2 45390  53.0554 305.1795 0001247  97.4415 262.6716 15.06386994312590
STARLINK-1292,45394,53.0387,0.0002991,16.15521346,229.76292747236585,233.7169558588712,1 45394U 20019AL  25318.30150949  .01280030  12068-2  92312-3 0  9990,2 45394  53.0387 245.0701 0002991 122.9243 237.2081 16.15521346313189
STARLINK-1297,45395,53.0538,0.0001541,15.06381817,546.2000819744153,548.3344915756006,1 45395U 20019AM  25318.67784492  .00005924  00000+0  41646-3 0  9997,2 45395  53.0538 302.9278 0001541  85.1110 275.0054 15.06381817311851
STARLINK-1307,45397,53.0556,0.0001703,15.06376101,546.1054065660446,548.4642052331328,1 45397U 20019AP  25318.67047600 -.00004710  00000+0 -29772-3 0  9992,2 45397  53.0556 302.9611 0001703  97.2794 262.8388 15.06376101312491
STARLINK-1255,45399,53.0494,0.0005072,15.32351216,465.32667557312743,472.27220789962394,1 45399U 20019AR  25318.63745551  .00030526  00000+0  97119-3 0  9992,2 45399  53.0494 288.1827 0005072  60.2811 299.8693 15.32351216312680
STARLINK-1260,45404,53.0533,0.0001546,15.06360668,546.2614299523693,548.4027850004004,1 45404U 20019AW  25318.20697269  .00008505  00000+0  58982-3 0  9991,2 45404  53.0533 295.0397 0001546  83.3039 276.8125 15.06360668312452
STARLINK-1263,45405,53.0551,0.0001342,15.06371956,546.3681167813938,548.2269034039018,1 45405U 20019AX  25318.25859038 -.00004037  00000+0 -25246-3 0  9996,2 45405  53.0551 294.8101 0001342 101.7196 258.3943 15.06371956312462
STARLINK-1265,45406,53.0534,0.0001136,15.06386035,546.4676345242224,548.0410834409831,1 45406U 20019AY  25318.66402619  .00006403  00000+0  44854-3 0  9994,2 45406  53.0534 292.9908 0001136  85.4761 274.6358 15.06386035312527
STARLINK-1278,45408,53.0535,0.0005554,15.35051624,456.96883414111016,464.565488883718,1 45408U 20019BA  25318.29644019  .00054029  00000+0  15653-2 0  9998,2 45408  53.0535 319.7648 0005554  28.6066 331.5239 15.35051624312126
STARLINK-1296,45412,53.0537,0.0001453,15.06377774,546.2734152213561,548.2859413080605,1 45412U 20019BE  25318.66770706  .00006092  00000+0  42775-3 0  9990,2 45412  53.0537 292.9716 0001453  87.3934 272.7222 15.06377774312528
STARLINK-1298,45413,53.047,0.0008753,15.54996527,396.22792862196184,408.0975213204956,1 45413U 20019BF  25318.85199851  .00047649  00000+0  70006-3 0  9999,2 45413  53.0470 263.4184 0008753  13.0428 347.0807 15.54996527313051
STARLINK-1309,45414,53.0544,0.0001447,15.06384831,546.2559444650587,548.2601537922774,1 45414U 20019BG  25318.35071359 -.00002803  00000+0 -16942-3 0  9991,2 45414  53.0544 294.3968 0001447  88.1269 271.9885 15.06384831312467
STARLINK-1316,45415,53.0554,0.0001573,15.06381596,546.1785979210317,548.357330322744,1 45415U 20019BH  25318.17747433 -.00005026  00000+0 -31893-3 0  9997,2 45415  53.0554 295.1730 0001573  95.8091 264.3077 15.06381596312478
STARLINK-1318,45416,53.0494,0.0005816,15.62260379,377.1981920770868,385.0605707319364,1 45416U 20019BJ  25318.00384632  .00109602  00000+0  12090-2 0  9998,2 45416  53.0494 258.3321 0005816  81.4815 278.6857 15.62260379312963
STARLINK-1286,45417,53.0543,0.0003881,15.37507958,450.8299472708659,456.13264939403143,1 45417U 20019BK  25318.70493258  .00095311  00000+0  25309-2 0  9999,2 45417  53.0543 318.1544 0003881  43.2813 316.8494 15.37507958312450
STARLINK-1308,45419,53.0543,0.0001879,15.06354241,546.0505068862858,548.6531055796677,1 45419U 20019BM  25318.34427910  .00005721  00000+0  40317-3 0  9996,2 45419  53.0543 324.4226 0001879  68.1925 291.9264 15.06354241312082
STARLINK-1329,45531,53.0552,0.0001172,15.06370447,546.4904736410408,548.113796574311,1 45531U 20025A   25318.84372437 -.00002795  00000+0 -16898-3 0  9993,2 45531  53.0552 262.1807 0001172  93.7768 266.3355 15.06370447307789
STARLINK-1338,45532,53.0533,0.0002043,15.06376236,545.8695285427093,548.6992557235353,1 45532U 20025B   25318.85479206  .00010563  00000+0  72743-3 0  9998,2 45532  53.0533 262.1307 0002043  96.7245 263.3976 15.06376236307783
STARLINK-1350,45535,53.0739,0.0002339,15.32822338,465.7952353545097,468.9975758816581,1 45535U 20025E   25318.83250286  .00014082  00000+0  44876-3 0  9990,2 45535  53.0739 211.2092 0002339  85.0037 275.1231 15.32822338308524
STARLINK-1362,45538,53.0543,0.0001375,15.0635276,546.4040901831941,548.3086008532109,1 45538U 20025H   25318.28986372  .00014917  00000+0  10195-2 0  9997,2 45538  53.0543 264.3833 0001375  93.1116 267.0030 15.06352760307703
STARLINK-1368,45540,53.0539,0.0001919,15.0638419,545.9310300480793,548.5889974219508,1 45540U 20025K   25318.55991411  .00013835  00000+0  94627-3 0  9991,2 45540  53.0539 263.4568 0001919  91.7370 268.3839 15.06384190307732
STARLINK-1371,45542,53.0567,0.0001139,15.06365793,546.5275903083029,548.1052085926967,1 45542U 20025M   25318.86216507 -.00001967  00000+0 -11333-3 0  9991,2 45542  53.0567 262.0978 0001139  86.7512 273.3607 15.06365793307783
STARLINK-1372,45543,53.0515,0.0001536,15.06440823,546.0227298272976,548.1501584693387,1 45543U 20025N   25318.23553889  .00024639  00000+0  16654-2 0  9999,2 45543  53.0515 264.9109 0001536 128.0585 232.0543 15.06440823306783
STARLINK-1373,45544,53.053,0.0001912,15.06440794,545.7624302856148,548.4106357646433,1 45544U 20025P   25318.85109527  .00052854  00000+0  35368-2 0  9997,2 45544  53.0530 262.1469 0001912  90.6433 269.4775 15.06440794307783
STARLINK-1294,45551,53.0479,0.0007069,15.6253657,375.55529219553773,385.1104168758802,1 45551U 20025W   25318.83677573  .00080883  00000+0  88698-3 0  9992,2 45551  53.0479 189.7645 0007069 104.3377 255.8421 15.62536570308803
STARLINK-1325,45554,53.053,0.0002972,15.66557045,366.75925106743307,370.7696092775286,1 45554U 20025Z   25318.91670139  .00050453  00000+0  47607-3 0  9990,2 45554  53.0530 182.0709 0002972 211.7411 182.7676 15.66557045  5933
STARLINK-1327,45555,53.0574,0.0001901,15.0638315,545.9466826645612,548.5797198210739,1 45555U 20025AA  25318.82345719  .00004344  00000+0  31046-3 0  9992,2 45555  53.0574 242.2736 0001901 107.1626 252.9571 15.06383150308059
STARLINK-1356,45564,53.0533,0.0001291,15.06402306,546.310428803009,548.0985519758287,1 45564U 20025AK  25318.76079931  .00019161  00000+0  13017-2 0  9995,2 45564  53.0533 242.5526 0001291  82.9440 277.1696 15.06402306308041
STARLINK-1357,45565,53.0608,0.0009522,15.34719178,455.2417954287239,468.2676852590348,1 45565U 20025AL  25318.46900308  .00019246  00000+0  57279-3 0  9997,2 45565  53.0608 226.2519 0009522  60.5732 299.6219 15.34719178308259
STARLINK-1361,45567,53.0561,0.0001977,15.063685,545.9389420870202,548.6772630805817,1 45567U 20025AN  25318.77920536 -.00000107  00000+0  11735-4 0  9993,2 45567  53.0561 242.4684 0001977 117.4699 242.6491 15.06368500308058
STARLINK-1363,45568,53.0525,0.0005578,15.4403078,430.42748602407755,438.02735977426346,1 45568U 20025AP  25318.80014541  .00024196  00000+0  52925-3 0  9996,2 45568  53.0525 236.3511 0005578 111.1649 248.9953 15.44030780308136
STARLINK-1366,45569,53.0525,0.0005232,15.4232072,435.69513742276376,442.82886373697056,1 45569U 20025AQ  25318.77427416  .00024026  00000+0  55663-3 0  9996,2 45569  53.0525 236.0681 0005232 105.2457 254.9126 15.42320720308133
STARLINK-1376,45570,53.0553,0.0002003,15.06387176,545.8637067413674,548.6380171188566,1 45570U 20025AR  25318.77551699 -.00000934  00000+0 -43780-4 0  9991,2 45570  53.0553 242.4914 0002003  86.0731 274.0487 15.06387176308041
STARLINK-1320,45572,53.0556,0.0010009,15.44799748,425.15030394213136,438.7827692016399,1 45572U 20025AT  25318.83281286  .00030209  00000+0  64036-3 0  9994,2 45572  53.0556 181.8030 0010009  74.2957 285.9152 15.44799748308926
STARLINK-1321,45573,53.0525,0.0001429,15.06392292,546.2455462640546,548.2248176336552,1 45573U 20025AU  25318.49633110  .00021365  00000+0  14491-2 0  9996,2 45573  53.0525 233.7417 0001429  99.0158 261.0993 15.06392292307842
STARLINK-1328,45576,53.0486,0.0010838,15.73891354,340.49825677721765,355.0773714042398,1 45576U 20025AX  25318.91670139  .00067041  00000+0  46276-3 0  9996,2 45576  53.0486 201.5092 0010838  94.1521   8.0923 15.73891354  5852
